NORAD_CAT_ID,OBJECT_NAME,OBJECT_TYPE,EPOCH,MEAN_MOTION,ECCENTRICITY,INCLINATION,RA_OF_ASC_NODE,ARG_OF_PERICENTER,MEAN_ANOMALY,BSTAR,MEAN_MOTION_DOT,MEAN_MOTION_DDOT,TLE_LINE0,TLE_LINE1,TLE_LINE2,SEMIMAJOR_AXIS,PERIOD,APOGEE,PERIGEE,DECAYED
51898.0,STARLINK-3597,PAYLOAD,2023-05-30 22:06:51,15.08837037,0.0001079,53.2168,230.1043,117.1361,242.9741,-1.0493e-05,-4.55e-06,0.0,0 STARLINK-3597,1 51898U 22022AY  23150.92142942 -.00000455  00000-0 -10493-4 0  9990,2 51898  53.2168 230.1043 0001079 117.1361 242.9741 15.08837037 70253,6917.889,95.438,540.501,539.008,0.0
51898.0,STARLINK-3597,PAYLOAD,2023-05-31 04:28:24,15.0883607,9.19e-05,53.2163,228.913,102.979,257.1305,9.4446e-06,-1.37e-06,0.0,0 STARLINK-3597,1 51898U 22022AY  23151.18639069 -.00000137  00000-0  94446-5 0  9997,2 51898  53.2163 228.9130 0000919 102.9790 257.1305 15.08836070 70294,6917.892,95.438,540.393,539.122,0.0
51898.0,STARLINK-3597,PAYLOAD,2023-05-31 12:25:19,15.0884082,9.38e-05,53.2166,227.4264,96.7081,263.4018,-8.2308e-06,-4.19e-06,0.0,0 STARLINK-3597,1 51898U 22022AY  23151.51758936 -.00000419  00000-0 -82308-5 0  9997,2 51898  53.2166 227.4264 0000938  96.7081 263.4018 15.08840820 70348,6917.878,95.438,540.392,539.094,0.0
51898.0,STARLINK-3597,PAYLOAD,2023-05-31 21:57:38,15.08842634,9.33e-05,53.2168,225.6422,96.6876,263.4223,2.4455e-05,1.02e-06,0.0,0 STARLINK-3597,1 51898U 22022AY  23151.91502716  .00000102  00000-0  24455-4 0  9999,2 51898  53.2168 225.6422 0000933  96.6876 263.4223 15.08842634 70402,6917.872,95.437,540.383,539.092,0.0
51898.0,STARLINK-3597,PAYLOAD,2023-06-01 10:40:43,15.08836791,9.35e-05,53.2167,223.2635,88.3807,271.7292,7.7967e-05,9.53e-06,0.0,0 STARLINK-3597,1 51898U 22022AY  23152.44495099  .00000953  00000-0  77967-4 0  9993,2 51898  53.2167 223.2635 0000935  88.3807 271.7292 15.08836791 70488,6917.89,95.438,540.402,539.108,0.0
51898.0,STARLINK-3597,PAYLOAD,2023-06-01 13:51:29,15.08839479,9.62e-05,53.2168,222.6686,87.7046,272.4056,0.00010051,1.312e-05,0.0,0 STARLINK-3597,1 51898U 22022AY  23152.57742911  .00001312  00000-0  10051-3 0  9995,2 51898  53.2168 222.6686 0000962  87.7046 272.4056 15.08839479 70501,6917.882,95.438,540.412,539.081,0.0
51898.0,STARLINK-3597,PAYLOAD,2023-06-01 23:23:48,15.08840241,0.0001056,53.2162,220.8837,73.43,286.6809,1.6023e-05,-3.3e-07,0.0,0 STARLINK-3597,1 51898U 22022AY  23152.97487165 -.00000033  00000-0  16023-4 0  9992,2 51898  53.2162 220.8837 0001056  73.4300 286.6809 15.08840241 70561,6917.88,95.438,540.475,539.014,0.0
51898.0,STARLINK-3597,PAYLOAD,2023-06-02 13:42:17,15.08841241,9.44e-05,53.2159,218.2066,80.5864,279.5234,4.6476e-05,4.52e-06,0.0,0 STARLINK-3597,1 51898U 22022AY  23153.57103113  .00000452  00000-0  46476-4 0  9996,2 51898  53.2159 218.2066 0000944  80.5864 279.5234 15.08841241 70655,6917.877,95.437,540.395,539.089,0.0
51898.0,STARLINK-3597,PAYLOAD,2023-06-02 21:39:12,15.08839245,8.93e-05,53.2158,216.7201,90.0975,270.0119,4.0511e-05,3.57e-06,0.0,0 STARLINK-3597,1 51898U 22022AY  23153.90223214  .00000357  00000-0  40511-4 0  9996,2 51898  53.2158 216.7201 0000893  90.0975 270.0119 15.08839245 70705,6917.883,95.438,540.365,539.13,0.0
51898.0,STARLINK-3597,PAYLOAD,2023-06-03 10:22:17,15.08840933,8.54e-05,53.2155,214.3388,100.7398,259.369,4.6264e-05,4.49e-06,0.0,0 STARLINK-3597,1 51898U 22022AY  23154.43215021  .00000449  00000-0  46264-4 0  9995,2 51898  53.2155 214.3388 0000854 100.7398 259.3690 15.08840933 70785,6917.878,95.437,540.333,539.152,0.0
51898.0,STARLINK-3597,PAYLOAD,2023-06-03 13:33:04,15.08841072,8.57e-05,53.2155,213.7441,100.0014,260.1075,4.5437e-05,4.36e-06,0.0,0 STARLINK-3597,1 51898U 22022AY  23154.56462992  .00000436  00000-0  45437-4 0  9997,2 51898  53.2155 213.7441 0000857 100.0014 260.1075 15.08841072 70804,6917.877,95.437,540.335,539.149,0.0
51898.0,STARLINK-3597,PAYLOAD,2023-06-03 21:29:59,15.08840429,8.63e-05,53.2155,212.2576,97.507,262.602,3.6186e-05,2.88e-06,0.0,0 STARLINK-3597,1 51898U 22022AY  23154.89583053  .00000288  00000-0  36186-4 0  9991,2 51898  53.2155 212.2576 0000863  97.5070 262.6020 15.08840429 70853,6917.879,95.438,540.341,539.147,0.0
51898.0,STARLINK-3597,PAYLOAD,2023-06-04 10:13:04,15.08839327,9.16e-05,53.2154,209.8797,91.3528,268.7569,6.4166e-05,7.34e-06,0.0,0 STARLINK-3597,1 51898U 22022AY  23155.42575127  .00000734  00000-0  64166-4 0  9999,2 51898  53.2154 209.8797 0000916  91.3528 268.7569 15.08839327 70937,6917.882,95.438,540.381,539.114,0.0
51898.0,STARLINK-3597,PAYLOAD,2023-06-05 03:42:19,15.08835366,9.08e-05,53.2152,206.6087,90.9015,269.2081,3.7328e-06,-2.28e-06,0.0,0 STARLINK-3597,1 51898U 22022AY  23156.15439629 -.00000228  00000-0  37328-5 0  9996,2 51898  53.2152 206.6087 0000908  90.9015 269.2081 15.08835366 71046,6917.895,95.438,540.388,539.131,0.0
51898.0,STARLINK-3597,PAYLOAD,2023-06-05 10:03:52,15.08836896,8.82e-05,53.2155,205.4196,90.0878,270.0215,-3.4741e-06,-3.43e-06,0.0,0 STARLINK-3597,1 51898U 22022AY  23156.41935602 -.00000343  00000-0 -34741-5 0  9992,2 51898  53.2155 205.4196 0000882  90.0878 270.0215 15.08836896 71088,6917.89,95.438,540.365,539.145,0.0
51898.0,STARLINK-3597,PAYLOAD,2023-06-06 08:19:16,15.08838853,8.68e-05,53.2156,201.2571,85.3034,274.8057,4.6686e-05,4.55e-06,0.0,0 STARLINK-3597,1 51898U 22022AY  23157.34671459  .00000455  00000-0  46686-4 0  9994,2 51898  53.2156 201.2571 0000868  85.3034 274.8057 15.08838853 71222,6917.884,95.438,540.349,539.148,0.0
51898.0,STARLINK-3597,PAYLOAD,2023-06-07 08:10:03,15.08834473,8.63e-05,53.2154,196.7972,96.4827,263.6263,4.4564e-05,4.22e-06,0.0,0 STARLINK-3597,1 51898U 22022AY  23158.34031897  .00000422  00000-0  44564-4 0  9998,2 51898  53.2154 196.7972 0000863  96.4827 263.6263 15.08834473 71376,6917.897,95.438,540.359,539.165,0.0
51898.0,STARLINK-3597,PAYLOAD,2023-06-07 19:17:45,15.08837095,8.68e-05,53.2156,194.7159,93.3941,266.715,3.9965e-05,3.48e-06,0.0,0 STARLINK-3597,1 51898U 22022AY  23158.80399851  .00000348  00000-0  39965-4 0  9992,2 51898  53.2156 194.7159 0000868  93.3941 266.7150 15.08837095 71441,6917.889,95.438,540.355,539.154,0.0
51898.0,STARLINK-3597,PAYLOAD,2023-06-08 09:36:13,15.08835953,8.94e-05,53.2156,192.0393,92.0256,268.0838,3.1566e-06,-2.37e-06,0.0,0 STARLINK-3597,1 51898U 22022AY  23159.40016176 -.00000237  00000-0  31566-5 0  9993,2 51898  53.2156 192.0393 0000894  92.0256 268.0838 15.08835953 71535,6917.893,95.438,540.376,539.139,0.0
51898.0,STARLINK-3597,PAYLOAD,2023-06-09 11:02:23,15.08841107,8.85e-05,53.2154,187.2809,81.6894,278.4199,5.5482e-05,5.95e-06,0.0,0 STARLINK-3597,1 51898U 22022AY  23160.45999818  .00000595  00000-0  55482-4 0  9991,2 51898  53.2154 187.2809 0000885  81.6894 278.4199 15.08841107 71693,6917.877,95.437,540.354,539.13,0.0
51898.0,STARLINK-3597,PAYLOAD,2023-06-10 07:42:24,15.08838291,8.49e-05,53.2154,183.415,80.7037,279.4052,7.0095e-05,8.28e-06,0.0,0 STARLINK-3597,1 51898U 22022AY  23161.32112011  .00000828  00000-0  70095-4 0  9996,2 51898  53.2154 183.4150 0000849  80.7037 279.4052 15.08838291 71823,6917.886,95.438,540.338,539.163,0.0
51898.0,STARLINK-3597,PAYLOAD,2023-06-10 18:50:06,15.08840543,8.44e-05,53.2154,181.3335,80.3185,279.7902,5.221e-05,5.43e-06,0.0,0 STARLINK-3597,1 51898U 22022AY  23161.78479929  .00000543  00000-0  52210-4 0  9993,2 51898  53.2154 181.3335 0000844  80.3185 279.7902 15.08840543 71897,6917.879,95.438,540.328,539.16,0.0
51898.0,STARLINK-3597,PAYLOAD,2023-06-10 23:36:16,15.0884147,8.54e-05,53.2154,180.4414,79.6433,280.4656,3.9081e-05,3.34e-06,0.0,0 STARLINK-3597,1 51898U 22022AY  23161.98351903  .00000334  00000-0  39081-4 0  9995,2 51898  53.2154 180.4414 0000854  79.6433 280.4656 15.08841470 71922,6917.876,95.437,540.332,539.15,0.0
51898.0,STARLINK-3597,PAYLOAD,2023-06-11 10:43:57,15.08842901,8.66e-05,53.2153,178.3593,83.2758,276.8333,3.8075e-05,3.18e-06,0.0,0 STARLINK-3597,1 51898U 22022AY  23162.44719760  .00000318  00000-0  38075-4 0  9990,2 51898  53.2153 178.3593 0000866  83.2758 276.8333 15.08842901 71997,6917.872,95.437,540.336,539.137,0.0
51898.0,STARLINK-3597,PAYLOAD,2023-06-11 18:40:53,15.0884206,8.71e-05,53.2153,176.8724,84.0244,276.0847,3.844e-05,3.24e-06,0.0,0 STARLINK-3597,1 51898U 22022AY  23162.77839750  .00000324  00000-0  38440-4 0  9991,2 51898  53.2153 176.8724 0000871  84.0244 276.0847 15.08842060 72046,6917.874,95.437,540.342,539.137,0.0
51898.0,STARLINK-3597,PAYLOAD,2023-06-12 07:23:58,15.0884056,8.8e-05,53.2153,174.4936,82.0365,278.0727,4.1066e-05,3.66e-06,0.0,0 STARLINK-3597,1 51898U 22022AY  23163.30831794  .00000366  00000-0  41066-4 0  9995,2 51898  53.2153 174.4936 0000880  82.0365 278.0727 15.08840560 72128,6917.879,95.438,540.352,539.135,0.0
51898.0,STARLINK-3597,PAYLOAD,2023-06-13 04:03:59,15.08836378,9.22e-05,53.2156,170.6277,82.1594,277.9502,-1.1348e-05,-4.68e-06,0.0,0 STARLINK-3597,1 51898U 22022AY  23164.16944257 -.00000468  00000-0 -11348-4 0  9994,2 51898  53.2156 170.6277 0000922  82.1594 277.9502 15.08836378 72254,6917.891,95.438,540.394,539.119,0.0
51898.0,STARLINK-3597,PAYLOAD,2023-06-13 05:39:23,15.08836041,9.21e-05,53.2156,170.3304,81.8295,278.2802,-1.385e-05,-5.08e-06,0.0,0 STARLINK-3597,1 51898U 22022AY  23164.23568294 -.00000508  00000-0 -13850-4 0  9990,2 51898  53.2156 170.3304 0000921  81.8295 278.2802 15.08836041 72260,6917.892,95.438,540.395,539.12,0.0
51898.0,STARLINK-3597,PAYLOAD,2023-06-14 00:44:00,15.08837401,9.3e-05,53.2155,166.7623,78.7335,281.3762,1.2745e-05,-8.5e-07,0.0,0 STARLINK-3597,1 51898U 22022AY  23165.03056246 -.00000085  00000-0  12745-4 0  9999,2 51898  53.2155 166.7623 0000930  78.7335 281.3762 15.08837401 72386,6917.888,95.438,540.397,539.11,0.0
51898.0,STARLINK-3597,PAYLOAD,2023-06-14 16:37:52,15.0883627,9.34e-05,53.2153,163.7886,75.8517,284.2578,2.5137e-05,1.12e-06,0.0,0 STARLINK-3597,1 51898U 22022AY  23165.69296414  .00000112  00000-0  25137-4 0  9993,2 51898  53.2153 163.7886 0000934  75.8517 284.2578 15.08836270 72487,6917.892,95.438,540.403,539.111,0.0
